{
  "type": "FeatureCollection",
  "features": [
    {
      "type": "Feature",
      "properties": {
        "norad_id": 66589,
        "name": "STARLINK-35447",
        "group": "last-30-days",
        "lat": -15.464485547482832,
        "lon": 78.45063285891035,
        "alt_km": 345.6360890707956,
        "timestamp": "2025-12-04T13:51:59.228162+00:00",
        "meta_object_name": "STARLINK-35447",
        "meta_object_id": "2025-270B",
        "meta_epoch": "2025-12-04T03:52:38.166240",
        "meta_mean_motion": 15.75286516,
        "meta_eccentricity": 0.00020989,
        "meta_inclination": 42.998,
        "meta_ra_of_asc_node": 243.704,
        "meta_arg_of_pericenter": 241.4735,
        "meta_mean_anomaly": 118.5923,
        "meta_ephemeris_type": 0,
        "meta_classification_type": "U",
        "meta_norad_cat_id": 66589,
        "meta_element_set_no": 999,
        "meta_rev_at_epoch": 311,
        "meta_bstar": -0.0038487751,
        "meta_mean_motion_dot": -0.00560228,
        "meta_mean_motion_ddot": 0,
        "tle_line1": "1 66589U 25270B   25338.16155285 -.00560228  00000+0 -38488-2 0  9991",
        "tle_line2": "2 66589  42.9980 243.7040 0002098 241.4735 118.5923 15.75286516  3113"
      },
      "geometry": {
        "type": "Point",
        "coordinates": [
          78.45063285891035,
          -15.464485547482832
        ]
      }
    },
    {
      "type": "Feature",
      "properties": {
        "norad_id": 66590,
        "name": "STARLINK-35429",
        "group": "last-30-days",
        "lat": -14.218707574076754,
        "lon": 76.96108311612662,
        "alt_km": 346.540417922467,
        "timestamp": "2025-12-04T13:51:59.228172+00:00",
        "meta_object_name": "STARLINK-35429",
        "meta_object_id": "2025-270C",
        "meta_epoch": "2025-12-04T03:53:07.641600",
        "meta_mean_motion": 15.75304786,
        "meta_eccentricity": 0.00015096,
        "meta_inclination": 42.9999,
        "meta_ra_of_asc_node": 243.7061,
        "meta_arg_of_pericenter": 284.7507,
        "meta_mean_anomaly": 75.3195,
        "meta_ephemeris_type": 0,
        "meta_classification_type": "U",
        "meta_norad_cat_id": 66590,
        "meta_element_set_no": 999,
        "meta_rev_at_epoch": 311,
        "meta_bstar": -0.0038568611,
        "meta_mean_motion_dot": -0.00561656,
        "meta_mean_motion_ddot": 0,
        "tle_line1": "1 66590U 25270C   25338.16189400 -.00561656  00000+0 -38569-2 0  9995",
        "tle_line2": "2 66590  42.9999 243.7061 0001509 284.7507  75.3195 15.75304786  3112"
      },
      "geometry": {
        "type": "Point",
        "coordinates": [
          76.96108311612662,
          -14.218707574076754
        ]
      }
    },
    {
      "type": "Feature",
      "properties": {
        "norad_id": 66591,
        "name": "STARLINK-36058",
        "group": "last-30-days",
        "lat": -16.792881298210453,
        "lon": 80.07045365491184,
        "alt_km": 346.2954943304285,
        "timestamp": "2025-12-04T13:51:59.228182+00:00",
        "meta_object_name": "STARLINK-36058",
        "meta_object_id": "2025-270D",
        "meta_epoch": "2025-12-04T02:20:50.002080",
        "meta_mean_motion": 15.75426072,
        "meta_eccentricity": 0.00024767,
        "meta_inclination": 42.9981,
        "meta_ra_of_asc_node": 244.0858,
        "meta_arg_of_pericenter": 274.5012,
        "meta_mean_anomaly": 85.5575,
        "meta_ephemeris_type": 0,
        "meta_classification_type": "U",
        "meta_norad_cat_id": 66591,
        "meta_element_set_no": 999,
        "meta_rev_at_epoch": 299,
        "meta_bstar": -0.0040705358,
        "meta_mean_motion_dot": -0.00593875,
        "meta_mean_motion_ddot": 0,
        "tle_line1": "1 66591U 25270D   25338.09780095 -.00593875  00000+0 -40705-2 0  9998",
        "tle_line2": "2 66591  42.9981 244.0858 0002476 274.5012  85.5575 15.75426072  2997"
      },
      "geometry": {
        "type": "Point",
        "coordinates": [
          80.07045365491184,
          -16.792881298210453
        ]
      }
    },
    {
      "type": "Feature",
      "properties": {
        "norad_id": 66592,
        "name": "STARLINK-36066",
        "group": "last-30-days",
        "lat": -17.990391955785086,
        "lon": 81.5626390395224,
        "alt_km": 345.9419182574129,
        "timestamp": "2025-12-04T13:51:59.228195+00:00",
        "meta_object_name": "STARLINK-36066",
        "meta_object_id": "2025-270E",
        "meta_epoch": "2025-12-04T03:51:39.663936",
        "meta_mean_motion": 15.75283675,
        "meta_eccentricity": 0.00021985,
        "meta_inclination": 42.9992,
        "meta_ra_of_asc_node": 243.6972,
        "meta_arg_of_pericenter": 265.4989,
        "meta_mean_anomaly": 94.5629,
        "meta_ephemeris_type": 0,
        "meta_classification_type": "U",
        "meta_norad_cat_id": 66592,
        "meta_element_set_no": 999,
        "meta_rev_at_epoch": 290,
        "meta_bstar": -0.0029277464,
        "meta_mean_motion_dot": -0.00432621,
        "meta_mean_motion_ddot": 0,
        "tle_line1": "1 66592U 25270E   25338.16087574 -.00432621  00000+0 -29277-2 0  9991",
        "tle_line2": "2 66592  42.9992 243.6972 0002198 265.4989  94.5629 15.75283675  2906"
      },
      "geometry": {
        "type": "Point",
        "coordinates": [
          81.5626390395224,
          -17.990391955785086
        ]
      }
    },
    {
      "type": "Feature",
      "properties": {
        "norad_id": 66593,
        "name": "STARLINK-36031",
        "group": "last-30-days",
        "lat": -19.29380910782098,
        "lon": 83.2309715076334,
        "alt_km": 345.78017412393,
        "timestamp": "2025-12-04T13:51:59.228205+00:00",
        "meta_object_name": "STARLINK-36031",
        "meta_object_id": "2025-270F",
        "meta_epoch": "2025-12-04T03:51:10.174752",
        "meta_mean_motion": 15.75313834,
        "meta_eccentricity": 0.00020553,
        "meta_inclination": 42.9978,
        "meta_ra_of_asc_node": 243.6952,
        "meta_arg_of_pericenter": 267.9518,
        "meta_mean_anomaly": 92.1116,
        "meta_ephemeris_type": 0,
        "meta_classification_type": "U",
        "meta_norad_cat_id": 66593,
        "meta_element_set_no": 999,
        "meta_rev_at_epoch": 300,
        "meta_bstar": -0.0022282579,
        "meta_mean_motion_dot": -0.00333622,
        "meta_mean_motion_ddot": 0,
        "tle_line1": "1 66593U 25270F   25338.16053443 -.00333622  00000+0 -22283-2 0  9991",
        "tle_line2": "2 66593  42.9978 243.6952 0002055 267.9518  92.1116 15.75313834  3004"
      },
      "geometry": {
        "type": "Point",
        "coordinates": [
          83.2309715076334,
          -19.29380910782098
        ]
      }
    },
    {
      "type": "Feature",
      "properties": {
        "norad_id": 66594,
        "name": "STARLINK-36032",
        "group": "last-30-days",
        "lat": -31.262443117111037,
        "lon": 101.7717036137356,
        "alt_km": 333.9570645830563,
        "timestamp": "2025-12-04T13:51:59.228216+00:00",
        "meta_object_name": "STARLINK-36032",
        "meta_object_id": "2025-270G",
        "meta_epoch": "2025-12-04T03:46:47.463456",
        "meta_mean_motion": 15.77380004,
        "meta_eccentricity": 0.00146576,
        "meta_inclination": 42.9975,
        "meta_ra_of_asc_node": 243.6707,
        "meta_arg_of_pericenter": 280.4782,
        "meta_mean_anomaly": 79.4436,
        "meta_ephemeris_type": 0,
        "meta_classification_type": "U",
        "meta_norad_cat_id": 66594,
        "meta_element_set_no": 999,
        "meta_rev_at_epoch": 281,
        "meta_bstar": 0.0022053405,
        "meta_mean_motion_dot": 0.00395318,
        "meta_mean_motion_ddot": 0,
        "tle_line1": "1 66594U 25270G   25338.15749379  .00395318  00000+0  22053-2 0  9994",
        "tle_line2": "2 66594  42.9975 243.6707 0014657 280.4782  79.4436 15.77380004  2810"
      },
      "geometry": {
        "type": "Point",
        "coordinates": [
          101.7717036137356,
          -31.262443117111037
        ]
      }
    },
    {
      "type": "Feature",
      "properties": {
        "norad_id": 66595,
        "name": "STARLINK-35711",
        "group": "last-30-days",
        "lat": -21.71612448962938,
        "lon": 86.45770869823764,
        "alt_km": 345.2865033645221,
        "timestamp": "2025-12-04T13:51:59.228230+00:00",
        "meta_object_name": "STARLINK-35711",
        "meta_object_id": "2025-270H",
        "meta_epoch": "2025-12-04T05:21:30.685248",
        "meta_mean_motion": 15.75230098,
        "meta_eccentricity": 0.00020324,
        "meta_inclination": 42.9987,
        "meta_ra_of_asc_node": 243.3051,
        "meta_arg_of_pericenter": 265.2073,
        "meta_mean_anomaly": 94.8564,
        "meta_ephemeris_type": 0,
        "meta_classification_type": "U",
        "meta_norad_cat_id": 66595,
        "meta_element_set_no": 999,
        "meta_rev_at_epoch": 312,
        "meta_bstar": -2.0104523e-05,
        "meta_mean_motion_dot": -3.592e-05,
        "meta_mean_motion_ddot": 0,
        "tle_line1": "1 66595U 25270H   25338.22327182 -.00003592  00000+0 -20105-4 0  9997",
        "tle_line2": "2 66595  42.9987 243.3051 0002032 265.2073  94.8564 15.75230098  3124"
      },
      "geometry": {
        "type": "Point",
        "coordinates": [
          86.45770869823764,
          -21.71612448962938
        ]
      }
    }
  ]
}